NORAD_CAT_ID,OBJECT_NAME,OBJECT_TYPE,EPOCH,MEAN_MOTION,ECCENTRICITY,INCLINATION,RA_OF_ASC_NODE,ARG_OF_PERICENTER,MEAN_ANOMALY,BSTAR,MEAN_MOTION_DOT,MEAN_MOTION_DDOT,TLE_LINE0,TLE_LINE1,TLE_LINE2,SEMIMAJOR_AXIS,PERIOD,APOGEE,PERIGEE,DECAYED
53596.0,STARLINK-4668,PAYLOAD,2023-12-07 04:12:28,15.08838571,0.0001658,53.2179,340.9167,111.3304,248.7866,0.00044798,6.849e-05,0.0,0 STARLINK-4668,1 53596U 22104J   23341.17532876  .00006849  00000-0  44798-3 0  9991,2 53596  53.2179 340.9167 0001658 111.3304 248.7866 15.08838571 70600,6917.885,95.438,540.897,538.603,0.0
53596.0,STARLINK-4668,PAYLOAD,2023-12-07 08:58:37,15.08838622,0.0001521,53.2178,340.0241,100.1706,259.9458,0.00026547,3.939e-05,0.0,0 STARLINK-4668,1 53596U 22104J   23341.37404934  .00003939  00000-0  26547-3 0  9995,2 53596  53.2178 340.0241 0001521 100.1706 259.9458 15.08838622 71322,6917.885,95.438,540.802,538.697,0.0
53596.0,STARLINK-4668,PAYLOAD,2023-12-08 04:03:15,15.08840872,0.0001462,53.2175,336.4551,90.5307,269.5853,0.000237,3.486e-05,0.0,0 STARLINK-4668,1 53596U 22104J   23342.16893105  .00003486  00000-0  23700-3 0  9990,2 53596  53.2175 336.4551 0001462  90.5307 269.5853 15.08840872 70757,6917.878,95.437,540.754,538.731,0.0
53596.0,STARLINK-4668,PAYLOAD,2023-12-08 08:49:24,15.08844492,0.0001477,53.2174,335.5623,88.9511,271.1651,0.00025681,3.802e-05,0.0,0 STARLINK-4668,1 53596U 22104J   23342.36764989  .00003802  00000-0  25681-3 0  9991,2 53596  53.2174 335.5623 0001477  88.9511 271.1651 15.08844492 71477,6917.867,95.437,540.753,538.71,0.0
53596.0,STARLINK-4668,PAYLOAD,2023-12-09 08:40:11,15.08851044,0.0001604,53.2176,331.0988,84.0734,276.0441,0.00029425,4.399e-05,0.0,0 STARLINK-4668,1 53596U 22104J   23343.36124665  .00004399  00000-0  29425-3 0  9995,2 53596  53.2176 331.0988 0001604  84.0734 276.0441 15.08851044 70932,6917.847,95.437,540.821,538.602,0.0
53596.0,STARLINK-4668,PAYLOAD,2023-12-09 22:58:39,15.08843143,0.000146,53.217,328.4237,119.8881,240.2256,2.3708e-05,8.9e-07,0.0,0 STARLINK-4668,1 53596U 22104J   23343.95740567  .00000089  00000-0  23708-4 0  9996,2 53596  53.2170 328.4237 0001460 119.8881 240.2256 15.08843143 71718,6917.871,95.437,540.746,538.726,0.0
53596.0,STARLINK-4668,PAYLOAD,2023-12-11 03:35:37,15.08832042,0.000142,53.218,323.0746,53.0028,307.1094,-2.8526e-05,-7.42e-06,0.0,0 STARLINK-4668,1 53596U 22104J   23345.14974403 -.00000742  00000-0 -28526-4 0  9998,2 53596  53.2180 323.0746 0001420  53.0028 307.1094 15.08832042 71206,6917.905,95.438,540.752,538.787,0.0
53596.0,STARLINK-4668,PAYLOAD,2023-12-11 05:11:00,15.08836862,0.0001424,53.2177,322.7692,94.7731,265.3424,3.3289e-05,2.42e-06,0.0,0 STARLINK-4668,1 53596U 22104J   23345.21598102  .00000242  00000-0  33289-4 0  9999,2 53596  53.2177 322.7692 0001424  94.7731 265.3424 15.08836862 71212,6917.89,95.438,540.74,538.77,0.0
53596.0,STARLINK-4668,PAYLOAD,2023-12-12 03:26:24,15.08849888,0.0001347,53.2164,318.6132,73.9205,286.1936,0.00054588,8.413e-05,0.0,0 STARLINK-4668,1 53596U 22104J   23346.14334009  .00008413  00000-0  54588-3 0  9998,2 53596  53.2164 318.6132 0001347  73.9205 286.1936 15.08849888 71356,6917.85,95.437,540.647,538.783,0.0
53596.0,STARLINK-4668,PAYLOAD,2023-12-13 04:52:33,15.08856498,0.000144,53.218,313.8617,82.9357,277.1799,0.0003333,5.023e-05,0.0,0 STARLINK-4668,1 53596U 22104J   23347.20317124  .00005023  00000-0  33330-3 0  9991,2 53596  53.2180 313.8617 0001440  82.9357 277.1799 15.08856498 71511,6917.83,95.437,540.691,538.699,0.0
53596.0,STARLINK-4668,PAYLOAD,2023-12-14 03:07:57,15.08847445,0.0001929,53.2185,309.6941,123.4877,236.63,-2.9703e-05,-7.61e-06,0.0,0 STARLINK-4668,1 53596U 22104J   23348.13052557 -.00000761  00000-0 -29703-4 0  9996,2 53596  53.2185 309.6941 0001929 123.4877 236.6300 15.08847445 71654,6917.858,95.437,541.057,538.388,0.0
53596.0,STARLINK-4668,PAYLOAD,2023-12-14 04:43:20,15.08847752,0.0001687,53.2183,309.3967,114.1933,245.9235,-1.4552e-05,-5.2e-06,0.0,0 STARLINK-4668,1 53596U 22104J   23348.19676562 -.00000520  00000-0 -14552-4 0  9999,2 53596  53.2183 309.3967 0001687 114.1933 245.9235 15.08847752 72357,6917.857,95.437,540.889,538.555,0.0
53596.0,STARLINK-4668,PAYLOAD,2023-12-15 02:58:44,15.08841444,0.000169,53.2182,305.2318,111.3486,248.7687,-3.9381e-05,-9.15e-06,0.0,0 STARLINK-4668,1 53596U 22104J   23349.12412838 -.00000915  00000-0 -39381-4 0  9992,2 53596  53.2182 305.2318 0001690 111.3486 248.7687 15.08841444 71800,6917.876,95.437,540.91,538.572,0.0
53596.0,STARLINK-4668,PAYLOAD,2023-12-16 02:49:32,15.08833491,0.0001653,53.2181,300.7771,109.814,250.303,1.5738e-05,-3.8e-07,0.0,0 STARLINK-4668,1 53596U 22104J   23350.11773725 -.00000038  00000-0  15738-4 0  9993,2 53596  53.2181 300.7771 0001653 109.8140 250.3030 15.08833491 71950,6917.9,95.438,540.909,538.622,0.0
53596.0,STARLINK-4668,PAYLOAD,2023-12-16 04:24:55,15.08836038,0.0001506,53.2175,300.4752,85.9928,274.1236,4.603e-05,4.45e-06,0.0,0 STARLINK-4668,1 53596U 22104J   23350.18397711  .00000445  00000-0  46030-4 0  9997,2 53596  53.2175 300.4752 0001506  85.9928 274.1236 15.08836038 72654,6917.892,95.438,540.799,538.716,0.0
53596.0,STARLINK-4668,PAYLOAD,2023-12-17 02:40:19,15.08843172,0.0001678,53.2174,296.3157,72.0798,288.0376,0.00021275,3.1e-05,0.0,0 STARLINK-4668,1 53596U 22104J   23351.11133664  .00003100  00000-0  21275-3 0  9990,2 53596  53.2174 296.3157 0001678  72.0798 288.0376 15.08843172 72103,6917.871,95.437,540.897,538.575,0.0
53596.0,STARLINK-4668,PAYLOAD,2023-12-17 04:15:42,15.08848761,0.0001836,53.218,296.0189,69.1355,290.9834,0.00029865,4.469e-05,0.0,0 STARLINK-4668,1 53596U 22104J   23351.17757501  .00004469  00000-0  29865-3 0  9990,2 53596  53.2180 296.0189 0001836  69.1355 290.9834 15.08848761 72801,6917.854,95.437,540.989,538.448,0.0
53596.0,STARLINK-4668,PAYLOAD,2023-12-18 02:31:06,15.08854007,0.0001969,53.2183,291.8524,67.72,292.4001,0.00028866,4.311e-05,0.0,0 STARLINK-4668,1 53596U 22104J   23352.10493148  .00004311  00000-0  28866-3 0  9994,2 53596  53.2183 291.8524 0001969  67.7200 292.4001 15.08854007 72948,6917.838,95.437,541.065,538.34,0.0
53596.0,STARLINK-4668,PAYLOAD,2023-12-19 02:21:52,15.08846904,0.0001492,53.2167,287.3959,106.4983,253.6173,4.1148e-05,3.67e-06,0.0,0 STARLINK-4668,1 53596U 22104J   23353.09852743  .00000367  00000-0  41148-4 0  9999,2 53596  53.2167 287.3959 0001492 106.4983 253.6173 15.08846904 72409,6917.859,95.437,540.756,538.692,0.0
53596.0,STARLINK-4668,PAYLOAD,2023-12-20 02:12:40,15.08833014,0.0001655,53.2166,282.9301,79.3692,280.7487,-2.2929e-05,-6.53e-06,0.0,0 STARLINK-4668,1 53596U 22104J   23354.09213950 -.00000653  00000-0 -22929-4 0  9997,2 53596  53.2166 282.9301 0001655  79.3692 280.7487 15.08833014 72559,6917.902,95.438,540.912,538.622,0.0
53596.0,STARLINK-4668,PAYLOAD,2023-12-21 02:03:27,15.08856376,0.0001492,53.2165,278.4741,93.4039,266.7124,0.00060968,9.433e-05,0.0,0 STARLINK-4668,1 53596U 22104J   23355.08573535  .00009433  00000-0  60968-3 0  9992,2 53596  53.2165 278.4741 0001492  93.4039 266.7124 15.08856376 72702,6917.83,95.437,540.727,538.663,0.0
53596.0,STARLINK-4668,PAYLOAD,2023-12-21 22:43:28,15.08842147,0.000126,53.2159,274.6084,96.759,263.3546,0.00011579,1.556e-05,0.0,0 STARLINK-4668,1 53596U 22104J   23355.94685973  .00001556  00000-0  11579-3 0  9999,2 53596  53.2159 274.6084 0001260  96.7590 263.3546 15.08842147 73527,6917.874,95.437,540.61,538.867,0.0
53596.0,STARLINK-4668,PAYLOAD,2023-12-22 00:18:51,15.08845457,0.0001486,53.2164,274.3108,112.7265,247.3885,0.00020673,3.004e-05,0.0,0 STARLINK-4668,1 53596U 22104J   23356.01309852  .00003004  00000-0  20673-3 0  9992,2 53596  53.2164 274.3108 0001486 112.7265 247.3885 15.08845457 72844,6917.864,95.437,540.757,538.701,0.0
53596.0,STARLINK-4668,PAYLOAD,2023-12-22 22:34:15,15.08838977,0.000155,53.2169,270.1463,118.058,242.0569,0.0002648,3.929e-05,0.0,0 STARLINK-4668,1 53596U 22104J   23356.94046212  .00003929  00000-0  26480-3 0  9990,2 53596  53.2169 270.1463 0001550 118.0580 242.0569 15.08838977 73670,6917.884,95.438,540.821,538.676,0.0
53596.0,STARLINK-4668,PAYLOAD,2023-12-23 03:20:25,15.08846396,0.0001491,53.2167,269.2524,111.1276,248.9875,0.00030041,4.497e-05,0.0,0 STARLINK-4668,1 53596U 22104J   23357.13917991  .00004497  00000-0  30041-3 0  9992,2 53596  53.2167 269.2524 0001491 111.1276 248.9875 15.08846396 73012,6917.861,95.437,540.757,538.694,0.0
53596.0,STARLINK-4668,PAYLOAD,2023-12-23 22:25:02,15.0883994,0.0002129,53.2168,265.6838,143.0828,217.0311,0.0001533,2.152e-05,0.0,0 STARLINK-4668,1 53596U 22104J   23357.93406232  .00002152  00000-0  15330-3 0  9991,2 53596  53.2168 265.6838 0002129 143.0828 217.0311 15.08839940 73825,6917.881,95.438,541.218,538.273,0.0
53596.0,STARLINK-4668,PAYLOAD,2023-12-24 03:11:12,15.08843086,0.0001351,53.2161,264.7904,101.4265,258.6879,0.00027892,4.154e-05,0.0,0 STARLINK-4668,1 53596U 22104J   23358.13278559  .00004154  00000-0  27892-3 0  9993,2 53596  53.2161 264.7904 0001351 101.4265 258.6879 15.08843086 73164,6917.871,95.437,540.671,538.801,0.0
53596.0,STARLINK-4668,PAYLOAD,2023-12-24 22:15:49,15.08869511,0.0001165,53.2151,261.2269,100.103,260.0094,0.00082558,0.00012886,0.0,0 STARLINK-4668,1 53596U 22104J   23358.92765389  .00012886  00000-0  82558-3 0  9993,2 53596  53.2151 261.2269 0001165 100.1030 260.0094 15.08869511 73974,6917.79,95.436,540.461,538.849,0.0
53596.0,STARLINK-4668,PAYLOAD,2023-12-25 03:01:58,15.08888266,0.0001388,53.2159,260.331,79.9269,280.188,0.0013476,0.00021252,0.0,0 STARLINK-4668,1 53596U 22104J   23359.12636857  .00021252  00000-0  13476-2 0  9992,2 53596  53.2159 260.3310 0001388  79.9269 280.1880 15.08888266 73315,6917.733,95.435,540.558,538.638,0.0
53596.0,STARLINK-4668,PAYLOAD,2023-12-25 22:06:32,15.08924994,0.0001417,53.2159,256.7626,80.5657,279.5495,0.001339,0.00021136,0.0,0 STARLINK-4668,1 53596U 22104J   23359.92121169  .00021136  00000-0  13390-2 0  9991,2 53596  53.2159 256.7626 0001417  80.5657 279.5495 15.08924994 74129,6917.621,95.432,540.466,538.505,0.0
